{"type":"FeatureCollection","schema":"zzx-bitnodes-map-polygons-v4","name":"ZZX Bitnodes Map Polygons","generated_at":"2026-08-17T20:35:14+00:00","polygon_dir":"bitcoin/bitnodes/data/geo/polygons","feature_count":3,"density_feature_count":0,"country_footprint_count":0,"overlay_feature_count":2,"external_feature_count":0,"red_ring_semantics":{"sanctioned_density_or_country":"red polygon stroke/fill and marker_ring=true","policy_restricted_density_or_country":"red-orange polygon stroke/fill and marker_ring=true","threat_density_or_country":"orange threat polygon stroke/fill and marker_ring=true"},"false_positive_control":{"threat_infrastructure":"defensive infrastructure correlation only","threat_actor_labels":"explicit trusted metadata/feed labels only","no_country_to_apt_inference":true},"features":[{"type":"Feature","id":"world_bounds","geometry":{"type":"Polygon","coordinates":[[[-180.0,-85.0],[180.0,-85.0],[180.0,85.0],[-180.0,85.0],[-180.0,-85.0]]]},"properties":{"name":"World Bounds","kind":"reference-bounds","stroke":"#c0d674","fill":"transparent","opacity":0.22,"interactive":false}},{"type":"Feature","id":"tor-overlay-zone","geometry":{"type":"Polygon","coordinates":[[[-42.0,-12.0],[-22.0,-12.0],[-22.0,12.0],[-42.0,12.0],[-42.0,-12.0]]]},"properties":{"name":"Tor Atlantic Overlay Zone","kind":"overlay-zone","network":"tor","symbolic":true,"stroke":"#9d67ad","fill":"#9d67ad","opacity":0.18,"note":"TOR nodes are symbolically plotted because physical attribution is intentionally ambiguous."}},{"type":"Feature","id":"i2p-overlay-zone","geometry":{"type":"Polygon","coordinates":[[[22.0,-12.0],[42.0,-12.0],[42.0,12.0],[22.0,12.0],[22.0,-12.0]]]},"properties":{"name":"I2P Indian Ocean Overlay Zone","kind":"overlay-zone","network":"i2p","symbolic":true,"stroke":"#b889ff","fill":"#b889ff","opacity":0.18,"note":"I2P nodes are symbolically plotted because physical attribution is intentionally ambiguous."}}]}
